MOLNIYA 2-9             
1 07276U 74026A   22203.08203757  .00000159  00000+0  00000+0 0  9995
2 07276  64.2789 222.3006 6468813 280.9352  17.1609  2.45097702250063
MOLNIYA 2-10            
1 07376U 74056A   22204.70040780 -.00000658  00000+0  00000+0 0  9999
2 07376  64.1727  91.0650 6732375 286.4668  13.6076  2.01194655351089
MOLNIYA 1-S             
1 07392U 74060A   22205.23313228 -.00000072  00000+0  00000+0 0  9991
2 07392   5.0256 282.3958 0011901 208.2201 331.4125  1.00198400119895
MOLNIYA 1-29            
1 07780U 75036A   22205.06724923  .00000122  00000+0 -85760-1 0  9999
2 07780  63.4140 211.1227 6904558 288.7728  11.9342  2.00631587346350
MOLNIYA 2-14            
1 08195U 75081A   22201.33446250 -.00000455  00000+0  00000+0 0  9991
2 08195  63.3847 184.4269 6807129 293.0021  11.3749  2.02066072343550
MOLNIYA 1-32            
1 08601U 76006A   22202.02559882  .00000153  00000+0 -16742-2 0  9992
2 08601  63.4706 292.8969 7256291 283.7372  11.2084  2.00092359 53332
MOLNIYA 1-36            
1 09880U 77021A   22204.26793143  .00001017  00000+0  00000+0 0  9994
2 09880  63.4605 263.8705 7186257 289.6897  10.2722  2.00871134230080
MOLNIYA 3-8             
1 10455U 77105A   22204.47323060  .00000026  00000+0 -39091-3 0  9993
2 10455  63.3680 352.4051 7373306 282.2241  10.7200  2.00842185327869
MOLNIYA 1-40            
1 10925U 78055A   22202.64021517  .00000537  00000+0  00000+0 0  9999
2 10925  63.3153  43.3458 7260795 280.6455  11.7509  2.00669075323368
MOLNIYA 3-10            
1 11057U 78095A   22205.43167300 -.00000133  00000+0 -17123-3 0  9993
2 11057  63.1569  25.6244 5795492 310.5776  11.7579  4.09853357385245
MOLNIYA 3-13            
1 11896U 80063A   22204.86138447  .00000426  00000+0  00000+0 0  9993
2 11896  62.6878 132.8515 7096096 276.3056  14.1388  2.00647635307823
MOLNIYA 1-49            
1 12156U 81009A   22198.33741356 -.00000596  00000+0  26136-3 0  9998
2 12156  61.7047 161.0690 7258025 262.6741  17.5259  2.05706745222104
MOLNIYA 1-52            
1 13012U 81123A   22204.67440130 -.00000928  00000+0 -59128-2 0  9994
2 13012  61.7805 273.6565 7246737 255.2289  21.0008  2.00444586297304
MOLNIYA 1-53            
1 13070U 82015A   22205.00321559 -.00000853  00000+0 -20705-1 0  9995
2 13070  62.6465 209.6927 7045633 282.7682  12.6306  2.00833702295997
MOLNIYA 3-20            
1 13875U 83015A   22204.46789512  .00000822  00000+0  18634-2 0  9998
2 13875  62.7416 347.0949 7401527 258.3510  18.0418  2.00421138224436
MOLNIYA 1-56            
1 13890U 83019A   22201.70496917  .00000630  00000+0  15781-3 0  9995
2 13890  63.0047  12.8312 7445926 264.3180  15.2863  1.99966537287266
MOLNIYA 1-63            
1 15429U 84124A   22199.44807560  .00001271  00000+0  00000+0 0  9996
2 15429  63.7399 164.8625 6629718 259.5750 310.3779  2.00740197275424
MOLNIYA 3-24            
1 15738U 85040A   22203.75934529 -.00000196  00000+0  00000+0 0  9999
2 15738  63.6747  76.2355 6807590 247.3265  30.7059  2.55627582304778
MOLNIYA 3-27            
1 16393U 85117A   22201.65446132 -.00000203  00000+0  00000+0 0  9996
2 16393  64.4070  77.2419 6979985 248.3373  27.8917  2.12397198274883
MOLNIYA 1-69            
1 17078U 86089A   22201.77037758 -.00000058  00000+0  00000+0 0  9997
2 17078  63.9966 183.4510 6640115 258.0262  25.7893  2.00690110261499
MOLNIYA 3-31            
1 17328U 87008A   22204.84491996  .00000379  00000+0  00000+0 0  9991
2 17328  63.6990 124.4566 7033955 253.9004  23.8931  2.00584021256594
MOLNIYA 1-71            
1 18946U 88017A   22204.79728885 -.00000179  00000+0  00000+0 0  9992
2 18946  63.4227 118.7207 7147892 256.4795  21.3303  2.00661219251788
MOLNIYA 1-75            
1 19807U 89014A   22200.51594940  .00000093  00000+0  00000+0 0  9990
2 19807  64.0673 281.0919 6863209 266.9529  19.4083  2.00579497244701
MOLNIYA 1-80            
1 21118U 91012A   22203.22196210 -.00000061  00000+0  00000+0 0  9994
2 21118  65.1909 329.1309 6793522 277.2158  16.0994  2.05234151231691
MOLNIYA 3-40            
1 21196U 91022A   22203.80264913 -.00001281  00000+0  00000+0 0  9996
2 21196  65.1159 322.6611 6823936 273.9794  17.0128  2.03018039230401
MOLNIYA 1-81            
1 21426U 91043A   22205.42147855 -.00000003  00000+0  00000+0 0  9991
2 21426  64.1246 339.3586 7099673 266.8292  17.3902  2.00629836227901
MOLNIYA 3-41            
1 21706U 91065A   22204.61513589  .00001241  00000+0  00000+0 0  9991
2 21706  64.1057 162.1474 6833872 255.6109  25.1064  2.04344290227604
MOLNIYA 3-42            
1 22178U 92067A   22205.08831765  .00000200  00000+0  00000+0 0  9993
2 22178  64.6763 212.0746 6430461 266.5129  23.4354  2.20435699 80864
MOLNIYA 1-86            
1 22671U 93035A   22205.49315682  .00000284  00000+0  30415-3 0  9996
2 22671  63.0913 215.4358 4857475   7.5681 357.7443  5.62675248354388
MOLNIYA 1-87            
1 22949U 93079A   22205.02935780 -.00000168  00000+0  00000+0 0  9993
2 22949  63.9544  88.0929 6874262 284.2129  13.3376  2.02850409 75676
MOLNIYA 1-88            
1 23420U 94081A   22205.26622311  .00000098  00000+0  00000+0 0  9992
2 23420  64.2820 187.5664 5805793 282.4199  21.4837  3.34498211114932
MOLNIYA 3-47            
1 23642U 95042A   22204.91379551  .00000432  00000+0  00000+0 0  9994
2 23642  64.0592  69.9350 6926434 284.4707  12.9056  2.01922083197752
MOLNIYA 1-90            
1 24960U 97054A   22205.12033772  .00000056  00000+0 -68658-3 0  9999
2 24960  63.6387 154.3239 6116460 298.5100  13.6866  3.18689987209170
MOLNIYA 1-91            
1 25485U 98054A   22204.78688910  .00000129  00000+0  22925-2 0  9990
2 25485  63.0187 144.5346 6775994 291.8988  13.2321  2.36445601179246
MOLNIYA 3-50            
1 25847U 99036A   22204.40523663  .00000147  00000+0 -22929-3 0  9991
2 25847  63.1883 328.8179 7385213 282.0036  10.7732  2.00640812168834
